{"type": "FeatureCollection", "features": [ {"type": "Feature", "properties": {"norad_id": 66476, "name": "STARLINK-35372", "group": "last-30-days", "lat": -40.64860181049313, "lon": 16.781881445434088, "alt_km": 380.72570742753305, "timestamp": "2025-12-02T17:49:10.799662+00:00", "meta": {"OBJECT_NAME": "STARLINK-35372", "OBJECT_ID": "2025-262W", "EPOCH": "2025-12-02T12:00:05.998752", "MEAN_MOTION": 15.64288888, "ECCENTRICITY": 0.000168, "INCLINATION": 42.9991, "RA_OF_ASC_NODE": 131.096, "ARG_OF_PERICENTER": 268.6198, "MEAN_ANOMALY": 57.8995, "EPHEMERIS_TYPE": 0, "CLASSIFICATION_TYPE": "U", "NORAD_CAT_ID": 66476, "ELEMENT_SET_NO": 999, "REV_AT_EPOCH": 388, "BSTAR": -0.024387, "MEAN_MOTION_DOT": -0.02092443, "MEAN_MOTION_DDOT": 0}, "tle": {"line1": "1 66476U 25262W   25336.50006943 -.02092443  00000+0 -24387-1 0  9992", "line2": "2 66476  42.9991 131.0960 0001680 268.6198  57.8995 15.64288888  3880"}}, "geometry": {"type": "Point", "coordinates": [16.781881445434088, -40.64860181049313]}}, {"type": "Feature", "properties": {"norad_id": 66477, "name": "STARLINK-35354", "group": "last-30-days", "lat": -41.56017531918486, "lon": 21.71719025684806, "alt_km": 380.80201574500734, "timestamp": "2025-12-02T17:49:10.799672+00:00", "meta": {"OBJECT_NAME": "STARLINK-35354", "OBJECT_ID": "2025-262X", "EPOCH": "2025-12-02T12:00:05.998752", "MEAN_MOTION": 15.64295779, "ECCENTRICITY": 0.0001599, "INCLINATION": 42.9992, "RA_OF_ASC_NODE": 131.0858, "ARG_OF_PERICENTER": 268.8808, "MEAN_ANOMALY": 61.4767, "EPHEMERIS_TYPE": 0, "CLASSIFICATION_TYPE": "U", "NORAD_CAT_ID": 66477, "ELEMENT_SET_NO": 999, "REV_AT_EPOCH": 399, "BSTAR": -0.02458, "MEAN_MOTION_DOT": -0.0210727, "MEAN_MOTION_DDOT": 0}, "tle": {"line1": "1 66477U 25262X   25336.50006943 -.02107270  00000+0 -24580-1 0  9993", "line2": "2 66477  42.9992 131.0858 0001599 268.8808  61.4767 15.64295779  3994"}}, "geometry": {"type": "Point", "coordinates": [21.71719025684806, -41.56017531918486]}}, {"type": "Feature", "properties": {"norad_id": 66478, "name": "STARLINK-35283", "group": "last-30-days", "lat": -41.933826042985594, "lon": 24.223177309393858, "alt_km": 380.70042752263544, "timestamp": "2025-12-02T17:49:10.799681+00:00", "meta": {"OBJECT_NAME": "STARLINK-35283", "OBJECT_ID": "2025-262Y", "EPOCH": "2025-12-02T12:00:05.998752", "MEAN_MOTION": 15.64292612, "ECCENTRICITY": 0.0001726, "INCLINATION": 42.9993, "RA_OF_ASC_NODE": 131.0805, "ARG_OF_PERICENTER": 265.932, "MEAN_ANOMALY": 66.3375, "EPHEMERIS_TYPE": 0, "CLASSIFICATION_TYPE": "U", "NORAD_CAT_ID": 66478, "ELEMENT_SET_NO": 999, "REV_AT_EPOCH": 399, "BSTAR": -0.024451, "MEAN_MOTION_DOT": -0.02097492, "MEAN_MOTION_DDOT": 0}, "tle": {"line1": "1 66478U 25262Y   25336.50006943 -.02097492  00000+0 -24451-1 0  9995", "line2": "2 66478  42.9993 131.0805 0001726 265.9320  66.3375 15.64292612  3999"}}, "geometry": {"type": "Point", "coordinates": [24.223177309393858, -41.933826042985594]}}, {"type": "Feature", "properties": {"norad_id": 66479, "name": "STARLINK-35581", "group": "last-30-days", "lat": -41.13067340177138, "lon": 19.2310724350829, "alt_km": 380.7543108869286, "timestamp": "2025-12-02T17:49:10.799691+00:00", "meta": {"OBJECT_NAME": "STARLINK-35581", "OBJECT_ID": "2025-262Z", "EPOCH": "2025-12-02T12:00:05.998752", "MEAN_MOTION": 15.64298486, "ECCENTRICITY": 0.0001649, "INCLINATION": 42.9991, "RA_OF_ASC_NODE": 131.0902, "ARG_OF_PERICENTER": 269.0691, "MEAN_ANOMALY": 59.3654, "EPHEMERIS_TYPE": 0, "CLASSIFICATION_TYPE": "U", "NORAD_CAT_ID": 66479, "ELEMENT_SET_NO": 999, "REV_AT_EPOCH": 399, "BSTAR": -0.024568, "MEAN_MOTION_DOT": -0.02106638, "MEAN_MOTION_DDOT": 0}, "tle": {"line1": "1 66479U 25262Z   25336.50006943 -.02106638  00000+0 -24568-1 0  9998", "line2": "2 66479  42.9991 131.0902 0001649 269.0691  59.3654 15.64298486  3993"}}, "geometry": {"type": "Point", "coordinates": [19.2310724350829, -41.13067340177138]}}, {"type": "Feature", "properties": {"norad_id": 66480, "name": "STARLINK-35670", "group": "last-30-days", "lat": -42.25229111980517, "lon": 26.75812590461724, "alt_km": 380.65723296553006, "timestamp": "2025-12-02T17:49:10.799701+00:00", "meta": {"OBJECT_NAME": "STARLINK-35670", "OBJECT_ID": "2025-262AA", "EPOCH": "2025-12-02T12:00:05.998752", "MEAN_MOTION": 15.64289166, "ECCENTRICITY": 0.0001802, "INCLINATION": 42.9994, "RA_OF_ASC_NODE": 131.0755, "ARG_OF_PERICENTER": 266.9607, "MEAN_ANOMALY": 67.2243, "EPHEMERIS_TYPE": 0, "CLASSIFICATION_TYPE": "U", "NORAD_CAT_ID": 66480, "ELEMENT_SET_NO": 999, "REV_AT_EPOCH": 399, "BSTAR": -0.024365, "MEAN_MOTION_DOT": -0.02090916, "MEAN_MOTION_DDOT": 0}, "tle": {"line1": "1 66480U 25262AA  25336.50006943 -.02090916  00000+0 -24365-1 0  9996", "line2": "2 66480  42.9994 131.0755 0001802 266.9607  67.2243 15.64289166  3995"}}, "geometry": {"type": "Point", "coordinates": [26.75812590461724, -42.25229111980517]}}, {"type": "Feature", "properties": {"norad_id": 66481, "name": "STARLINK-35698", "group": "last-30-days", "lat": -42.514719690102645, "lon": 29.327660260296987, "alt_km": 380.77913205709683, "timestamp": "2025-12-02T17:49:10.799711+00:00", "meta": {"OBJECT_NAME": "STARLINK-35698", "OBJECT_ID": "2025-262AB", "EPOCH": "2025-12-02T12:00:05.998752", "MEAN_MOTION": 15.64295626, "ECCENTRICITY": 0.000166, "INCLINATION": 42.999, "RA_OF_ASC_NODE": 131.0702, "ARG_OF_PERICENTER": 270.5284, "MEAN_ANOMALY": 65.5784, "EPHEMERIS_TYPE": 0, "CLASSIFICATION_TYPE": "U", "NORAD_CAT_ID": 66481, "ELEMENT_SET_NO": 999, "REV_AT_EPOCH": 399, "BSTAR": -0.024561, "MEAN_MOTION_DOT": -0.02105889, "MEAN_MOTION_DDOT": 0}, "tle": {"line1": "1 66481U 25262AB  25336.50006943 -.02105889  00000+0 -24561-1 0  9991", "line2": "2 66481  42.9990 131.0702 0001660 270.5284  65.5784 15.64295626  3997"}}, "geometry": {"type": "Point", "coordinates": [29.327660260296987, -42.514719690102645]}}, {"type": "Feature", "properties": {"norad_id": 66482, "name": "STARLINK-35648", "group": "last-30-days", "lat": -42.71935028492813, "lon": 31.912656433259134, "alt_km": 380.77616035490337, "timestamp": "2025-12-02T17:49:10.799723+00:00", "meta": {"OBJECT_NAME": "STARLINK-35648", "OBJECT_ID": "2025-262AC", "EPOCH": "2025-12-02T12:00:05.998752", "MEAN_MOTION": 15.64305867, "ECCENTRICITY": 0.0001659, "INCLINATION": 42.9992, "RA_OF_ASC_NODE": 131.0656, "ARG_OF_PERICENTER": 270.5652, "MEAN_ANOMALY": 67.4554, "EPHEMERIS_TYPE": 0, "CLASSIFICATION_TYPE": "U", "NORAD_CAT_ID": 66482, "ELEMENT_SET_NO": 999, "REV_AT_EPOCH": 383, "BSTAR": -0.02474, "MEAN_MOTION_DOT": -0.0211994, "MEAN_MOTION_DDOT": 0}, "tle": {"line1": "1 66482U 25262AC  25336.50006943 -.02119940  00000+0 -24740-1 0  9994", "line2": "2 66482  42.9992 131.0656 0001659 270.5652  67.4554 15.64305867  3833"}}, "geometry": {"type": "Point", "coordinates": [31.912656433259134, -42.71935028492813]}}, {"type": "Feature", "properties": {"norad_id": 66483, "name": "STARLINK-35654", "group": "last-30-days", "lat": -42.86523007848603, "lon": 34.50766732653866, "alt_km": 380.8110135930947, "timestamp": "2025-12-02T17:49:10.799733+00:00", "meta": {"OBJECT_NAME": "STARLINK-35654", "OBJECT_ID": "2025-262AD", "EPOCH": "2025-12-02T12:00:05.998752", "MEAN_MOTION": 15.64300776, "ECCENTRICITY": 0.0001611, "INCLINATION": 42.9995, "RA_OF_ASC_NODE": 131.0601, "ARG_OF_PERICENTER": 270.6987, "MEAN_ANOMALY": 69.2405, "EPHEMERIS_TYPE": 0, "CLASSIFICATION_TYPE": "U", "NORAD_CAT_ID": 66483, "ELEMENT_SET_NO": 999, "REV_AT_EPOCH": 399, "BSTAR": -0.024644, "MEAN_MOTION_DOT": -0.02112419, "MEAN_MOTION_DDOT": 0}, "tle": {"line1": "1 66483U 25262AD  25336.50006943 -.02112419  00000+0 -24644-1 0  9992", "line2": "2 66483  42.9995 131.0601 0001611 270.6987  69.2405 15.64300776  3993"}}, "geometry": {"type": "Point", "coordinates": [34.50766732653866, -42.86523007848603]}}, {"type": "Feature", "properties": {"norad_id": 66484, "name": "STARLINK-35371", "group": "last-30-days", "lat": -42.95149527222908, "lon": 37.11304230111616, "alt_km": 380.74774290004643, "timestamp": "2025-12-02T17:49:10.799745+00:00", "meta": {"OBJECT_NAME": "STARLINK-35371", "OBJECT_ID": "2025-262AE", "EPOCH": "2025-12-02T12:00:05.998752", "MEAN_MOTION": 15.64295739, "ECCENTRICITY": 0.00017, "INCLINATION": 42.9993, "RA_OF_ASC_NODE": 131.0563, "ARG_OF_PERICENTER": 269.9117, "MEAN_ANOMALY": 71.9447, "EPHEMERIS_TYPE": 0, "CLASSIFICATION_TYPE": "U", "NORAD_CAT_ID": 66484, "ELEMENT_SET_NO": 999, "REV_AT_EPOCH": 399, "BSTAR": -0.024536, "MEAN_MOTION_DOT": -0.02104036, "MEAN_MOTION_DDOT": 0}, "tle": {"line1": "1 66484U 25262AE  25336.50006943 -.02104036  00000+0 -24536-1 0  9999", "line2": "2 66484  42.9993 131.0563 0001700 269.9117  71.9447 15.64295739  3992"}}, "geometry": {"type": "Point", "coordinates": [37.11304230111616, -42.95149527222908]}}, {"type": "Feature", "properties": {"norad_id": 66485, "name": "STARLINK-34774", "group": "last-30-days", "lat": -20.56258985289692, "lon": 160.48696907262442, "alt_km": 347.1926096244624, "timestamp": "2025-12-02T17:49:10.799755+00:00", "meta": {"OBJECT_NAME": "STARLINK-34774", "OBJECT_ID": "2025-263A", "EPOCH": "2025-12-02T12:00:05.998752", "MEAN_MOTION": 15.75397151, "ECCENTRICITY": 0.0001925, "INCLINATION": 42.9989, "RA_OF_ASC_NODE": 185.6979, "ARG_OF_PERICENTER": 277.0522, "MEAN_ANOMALY": 115.8503, "EPHEMERIS_TYPE": 0, "CLASSIFICATION_TYPE": "U", "NORAD_CAT_ID": 66485, "ELEMENT_SET_NO": 999, "REV_AT_EPOCH": 399, "BSTAR": -0.011903, "MEAN_MOTION_DOT": -0.01648489, "MEAN_MOTION_DDOT": 0}, "tle": {"line1": "1 66485U 25263A   25336.50006943 -.01648489  00000+0 -11903-1 0  9999", "line2": "2 66485  42.9989 185.6979 0001925 277.0522 115.8503 15.75397151  3997"}}, "geometry": {"type": "Point", "coordinates": [160.48696907262442, -20.56258985289692]}}]}